{
  "type": "FeatureCollection",
  "features": [
    {
      "type": "Feature",
      "properties": {
        "norad_id": 38857,
        "name": "GSAT0103 (GALILEO-FM3)",
        "group": "gnss",
        "lat": -10.506397789597683,
        "lon": -66.00906084428198,
        "alt_km": 23222.046662670597,
        "timestamp": "2025-12-10T07:43:55.022219+00:00",
        "meta_object_name": "GSAT0103 (GALILEO-FM3)",
        "meta_object_id": "2012-055A",
        "meta_epoch": "2025-12-08T20:02:14.787168",
        "meta_mean_motion": 1.70473288,
        "meta_eccentricity": 0.000255,
        "meta_inclination": 55.6903,
        "meta_ra_of_asc_node": 106.7738,
        "meta_arg_of_pericenter": 268.6106,
        "meta_mean_anomaly": 91.3235,
        "meta_ephemeris_type": 0,
        "meta_classification_type": "U",
        "meta_norad_cat_id": 38857,
        "meta_element_set_no": 999,
        "meta_rev_at_epoch": 8176,
        "meta_bstar": 0,
        "meta_mean_motion_dot": 1.1e-07,
        "meta_mean_motion_ddot": 0,
        "tle_line1": "1 38857U 12055A   25342.83489337  .00000011  00000+0  00000+0 0  9995",
        "tle_line2": "2 38857  55.6903 106.7738 0002550 268.6106  91.3235  1.70473288 81769"
      },
      "geometry": {
        "type": "Point",
        "coordinates": [
          -66.00906084428198,
          -10.506397789597683
        ]
      }
    },
    {
      "type": "Feature",
      "properties": {
        "norad_id": 38953,
        "name": "BEIDOU-2 G6 (C02)",
        "group": "gnss",
        "lat": -1.601689062305984,
        "lon": -80.83189344051898,
        "alt_km": 35784.42690886354,
        "timestamp": "2025-12-10T07:43:55.022232+00:00",
        "meta_object_name": "BEIDOU-2 G6 (C02)",
        "meta_object_id": "2012-059A",
        "meta_epoch": "2025-12-09T19:06:31.590144",
        "meta_mean_motion": 1.00269722,
        "meta_eccentricity": 0.0007552,
        "meta_inclination": 3.9415,
        "meta_ra_of_asc_node": 75.5279,
        "meta_arg_of_pericenter": 289.1336,
        "meta_mean_anomaly": 84.7783,
        "meta_ephemeris_type": 0,
        "meta_classification_type": "U",
        "meta_norad_cat_id": 38953,
        "meta_element_set_no": 999,
        "meta_rev_at_epoch": 4801,
        "meta_bstar": 0,
        "meta_mean_motion_dot": -1.73e-06,
        "meta_mean_motion_ddot": 0,
        "tle_line1": "1 38953U 12059A   25343.79619896 -.00000173  00000+0  00000+0 0  9997",
        "tle_line2": "2 38953   3.9415  75.5279 0007552 289.1336  84.7783  1.00269722 48017"
      },
      "geometry": {
        "type": "Point",
        "coordinates": [
          -80.83189344051898,
          -1.601689062305984
        ]
      }
    },
    {
      "type": "Feature",
      "properties": {
        "norad_id": 38977,
        "name": "LUCH 5B (SDCM/PRN 125)",
        "group": "gnss",
        "lat": 8.018616228609417,
        "lon": 179.29832734649827,
        "alt_km": 35771.781611583116,
        "timestamp": "2025-12-10T07:43:55.022244+00:00",
        "meta_object_name": "LUCH 5B (SDCM/PRN 125)",
        "meta_object_id": "2012-061A",
        "meta_epoch": "2025-12-08T10:06:12.360096",
        "meta_mean_motion": 1.00272234,
        "meta_eccentricity": 0.00072728,
        "meta_inclination": 10.0716,
        "meta_ra_of_asc_node": 51.747,
        "meta_arg_of_pericenter": 191.5954,
        "meta_mean_anomaly": 329.292,
        "meta_ephemeris_type": 0,
        "meta_classification_type": "U",
        "meta_norad_cat_id": 38977,
        "meta_element_set_no": 999,
        "meta_rev_at_epoch": 4769,
        "meta_bstar": 0,
        "meta_mean_motion_dot": -1.39e-06,
        "meta_mean_motion_ddot": 0,
        "tle_line1": "1 38977U 12061A   25342.42097639 -.00000139  00000+0  00000+0 0  9992",
        "tle_line2": "2 38977  10.0716  51.7470 0007272 191.5954 329.2920  1.00272234 47691"
      },
      "geometry": {
        "type": "Point",
        "coordinates": [
          179.29832734649827,
          8.018616228609417
        ]
      }
    },
    {
      "type": "Feature",
      "properties": {
        "norad_id": 39155,
        "name": "COSMOS 2485 (747)",
        "group": "gnss",
        "lat": 36.954099737639986,
        "lon": 100.16825586593276,
        "alt_km": 19187.692581620162,
        "timestamp": "2025-12-10T07:43:55.022256+00:00",
        "meta_object_name": "COSMOS 2485 (747)",
        "meta_object_id": "2013-019A",
        "meta_epoch": "2025-12-09T07:54:23.495904",
        "meta_mean_motion": 2.1310286,
        "meta_eccentricity": 0.0024563,
        "meta_inclination": 65.3117,
        "meta_ra_of_asc_node": 79.982,
        "meta_arg_of_pericenter": 229.1601,
        "meta_mean_anomaly": 130.6433,
        "meta_ephemeris_type": 0,
        "meta_classification_type": "U",
        "meta_norad_cat_id": 39155,
        "meta_element_set_no": 999,
        "meta_rev_at_epoch": 9823,
        "meta_bstar": 0,
        "meta_mean_motion_dot": -1.3e-07,
        "meta_mean_motion_ddot": 0,
        "tle_line1": "1 39155U 13019A   25343.32943861 -.00000013  00000+0  00000+0 0  9993",
        "tle_line2": "2 39155  65.3117  79.9820 0024563 229.1601 130.6433  2.13102860 98239"
      },
      "geometry": {
        "type": "Point",
        "coordinates": [
          100.16825586593276,
          36.954099737639986
        ]
      }
    },
    {
      "type": "Feature",
      "properties": {
        "norad_id": 39166,
        "name": "GPS BIIF-4  (PRN 27)",
        "group": "gnss",
        "lat": 51.643432320695894,
        "lon": -19.75164965647812,
        "alt_km": 19845.156367976593,
        "timestamp": "2025-12-10T07:43:55.022267+00:00",
        "meta_object_name": "GPS BIIF-4  (PRN 27)",
        "meta_object_id": "2013-023A",
        "meta_epoch": "2025-12-09T05:24:11.844576",
        "meta_mean_motion": 2.00565099,
        "meta_eccentricity": 0.01376828,
        "meta_inclination": 54.6551,
        "meta_ra_of_asc_node": 276.7112,
        "meta_arg_of_pericenter": 48.5762,
        "meta_mean_anomaly": 312.6137,
        "meta_ephemeris_type": 0,
        "meta_classification_type": "U",
        "meta_norad_cat_id": 39166,
        "meta_element_set_no": 999,
        "meta_rev_at_epoch": 9207,
        "meta_bstar": 0,
        "meta_mean_motion_dot": -4.9e-07,
        "meta_mean_motion_ddot": 0,
        "tle_line1": "1 39166U 13023A   25343.22513709 -.00000049  00000+0  00000+0 0  9992",
        "tle_line2": "2 39166  54.6551 276.7112 0137682  48.5762 312.6137  2.00565099 92075"
      },
      "geometry": {
        "type": "Point",
        "coordinates": [
          -19.75164965647812,
          51.643432320695894
        ]
      }
    },
    {
      "type": "Feature",
      "properties": {
        "norad_id": 39199,
        "name": "IRNSS-1A",
        "group": "gnss",
        "lat": -2.3441734145593256,
        "lon": -110.09786400119849,
        "alt_km": 35692.55603821847,
        "timestamp": "2025-12-10T07:43:55.022279+00:00",
        "meta_object_name": "IRNSS-1A",
        "meta_object_id": "2013-034A",
        "meta_epoch": "2025-12-02T19:49:26.431104",
        "meta_mean_motion": 1.00279053,
        "meta_eccentricity": 0.00216608,
        "meta_inclination": 35.2852,
        "meta_ra_of_asc_node": 66.6964,
        "meta_arg_of_pericenter": 185.4059,
        "meta_mean_anomaly": 172.3398,
        "meta_ephemeris_type": 0,
        "meta_classification_type": "U",
        "meta_norad_cat_id": 39199,
        "meta_element_set_no": 999,
        "meta_rev_at_epoch": 4539,
        "meta_bstar": 0,
        "meta_mean_motion_dot": 6.5e-07,
        "meta_mean_motion_ddot": 0,
        "tle_line1": "1 39199U 13034A   25336.82600036  .00000065  00000+0  00000+0 0  9995",
        "tle_line2": "2 39199  35.2852  66.6964 0021660 185.4059 172.3398  1.00279053 45393"
      },
      "geometry": {
        "type": "Point",
        "coordinates": [
          -110.09786400119849,
          -2.3441734145593256
        ]
      }
    },
    {
      "type": "Feature",
      "properties": {
        "norad_id": 39533,
        "name": "GPS BIIF-5  (PRN 30)",
        "group": "gnss",
        "lat": 51.128942466729896,
        "lon": -136.85812749896797,
        "alt_km": 20358.91455355943,
        "timestamp": "2025-12-10T07:43:55.022291+00:00",
        "meta_object_name": "GPS BIIF-5  (PRN 30)",
        "meta_object_id": "2014-008A",
        "meta_epoch": "2025-12-09T05:15:48.383136",
        "meta_mean_motion": 2.00574211,
        "meta_eccentricity": 0.0079126,
        "meta_inclination": 53.6307,
        "meta_ra_of_asc_node": 157.0682,
        "meta_arg_of_pericenter": 226.4462,
        "meta_mean_anomaly": 132.9001,
        "meta_ephemeris_type": 0,
        "meta_classification_type": "U",
        "meta_norad_cat_id": 39533,
        "meta_element_set_no": 999,
        "meta_rev_at_epoch": 8587,
        "meta_bstar": 0,
        "meta_mean_motion_dot": 6.2e-07,
        "meta_mean_motion_ddot": 0,
        "tle_line1": "1 39533U 14008A   25343.21930999  .00000062  00000+0  00000+0 0  9991",
        "tle_line2": "2 39533  53.6307 157.0682 0079126 226.4462 132.9001  2.00574211 85875"
      },
      "geometry": {
        "type": "Point",
        "coordinates": [
          -136.85812749896797,
          51.128942466729896
        ]
      }
    }
  ]
}